[{"OBJECT_NAME":"PROPCUBE 1 (FLORA)","OBJECT_ID":"2015-058N","EPOCH":"2026-03-09T22:10:52.593312","MEAN_MOTION":14.88641208,"ECCENTRICITY":0.01301152,"INCLINATION":64.774,"RA_OF_ASC_NODE":242.7389,"ARG_OF_PERICENTER":100.0601,"MEAN_ANOMALY":261.522,"EPHEMERIS_TYPE":0,"CLASSIFICATION_TYPE":"U","NORAD_CAT_ID":40976,"ELEMENT_SET_NO":999,"REV_AT_EPOCH":10148,"BSTAR":0.00044491072,"MEAN_MOTION_DOT":4.703e-5,"MEAN_MOTION_DDOT":0},{"OBJECT_NAME":"STARLINK-4204","OBJECT_ID":"2022-062AA","EPOCH":"2026-03-09T04:04:12.333216","MEAN_MOTION":15.08829796,"ECCENTRICITY":0.00012118,"INCLINATION":53.2181,"RA_OF_ASC_NODE":26.4506,"ARG_OF_PERICENTER":112.9096,"MEAN_ANOMALY":247.2025,"EPHEMERIS_TYPE":0,"CLASSIFICATION_TYPE":"U","NORAD_CAT_ID":52854,"ELEMENT_SET_NO":999,"REV_AT_EPOCH":20584,"BSTAR":4.6956494e-5,"MEAN_MOTION_DOT":4.59e-6,"MEAN_MOTION_DDOT":0}]
